0255P         2022 09  7.2935  0.848748  0.711586  186.0074  275.6676   13.4109  20220610  14.1  4.0  255P/Levy                                                MPEC 2021-UA9
0256P         2023 03 12.3396  2.700054  0.417974  124.2139   81.3405   27.6196  20220610  14.0  2.0  256P/LINEAR                                              MPEC 2022-C56
0257P         2020 09 10.7495  2.143960  0.430278  117.7170  207.7240   20.2203  20220610  11.5  4.0  257P/Catalina                                            MPEC 2021-Y10
0258P         2020 06 18.0344  3.479785  0.208405   25.8661  126.2428    6.7462  20220610  13.0  4.0  258P/PANSTARRS                                           MPEC 2021-U31
0259P         2022 02  8.3794  1.805558  0.338895  257.6432   51.4379   15.8913  20220610  15.5  4.0  259P/Garradd                                             MPC106349
0260P         2019 09 10.5088  1.415432  0.609335   18.4267  349.3386   15.0587  20220610  13.5  4.0  260P/McNaught                                            MPEC 2022-K19
0261P         2019 06 19.4040  2.012716  0.423359   67.2138  291.1367    6.0732  20220610  14.0  4.0  261P/Larson                                              MPEC 2021-J28
0262P         2030 12 10.7522  1.263691  0.816126  171.0380  217.8685   29.2674  20220610  13.5  4.0  262P/McNaught-Russell                                    MPC 82322
0263P         2023 01 30.5625  1.236653  0.593561   35.0042  105.5205   11.5212  20220610   9.0  4.0  263P/Gibbs                                               MPC 89018
0264P         2019 08  4.2986  2.427576  0.375679  346.7200  220.3670   25.2537  20220610  13.0  4.0  264P/Larsen                                              MPC114608
0265P         2021 02  9.1244  1.499362  0.647606   33.4612  342.9259   14.3650  20220610  14.5  4.0  265P/LINEAR                                              MPC 79870
0266P         2020 04 19.2110  2.332651  0.339643   97.7023    4.9984    3.4271  20220610  14.7  4.0  266P/Christensen                                         MPEC 2021-F20
0267P         2024 04 24.6409  1.238189  0.614416  114.2103  228.5816    6.1417  20220610  19.5  4.0  267P/LONEOS                                              MPC114608
0268P         2024 12 20.2201  2.382119  0.477868  359.8003  126.9715   15.8656  20220610  14.0  4.0  268P/Bernardi                                            MPC 92277
0269P         2014 09 29.0778  4.023535  0.431039  225.7479  241.7305    7.0778  20220610  10.0  4.0  269P/Jedicke                                             MPC104795
0270P         2030 08 18.6642  3.540975  0.468430  209.7726  223.0120    2.9227  20220610   8.0  4.0  270P/Gehrels                                             MPC 88332
0271P         2013 07 15.5752  4.256766  0.395219   36.3872    9.3184    6.8723  20220610  11.0  4.0  271P/van Houten-Lemmon                                   MPC 92277
0272P         2022 07 17.0548  2.432187  0.454672   27.8979  109.4702   18.0743  20220610  16.0  2.0  272P/NEAT                                                MPEC 2022-C56
0273P         2012 12 20.2480  0.822400  0.974246   20.3242  320.3991  136.7575  20220610  11.5  4.0  273P/Pons-Gambart                                        MPC 82723
0274P         2022 04  8.4592  2.453159  0.439385   38.4682   81.3385   15.8155  20220610  13.0  4.0  274P/Tombaugh-Tenagra                                    MPEC 2022-L66
0275P         2026 10 31.5951  1.659758  0.712645  174.0014  348.7574   21.2753  20220610  17.0  4.0  275P/Hermann                                             MPC 81862
0276P         2024 12 13.5705  3.898106  0.267647  199.5503  211.3624   14.8101  20220610  11.5  4.0  276P/Vorobjov                                            MPEC 2022-K19
0277P         2020 12 30.2295  1.903754  0.505957  152.3175  276.3262   16.7769  20220610  15.1  4.0  277P/LINEAR                                              MPEC 2021-F20
0278P         2020 09 11.6220  2.079309  0.436112  237.7852   15.3826    6.6963  20220610  14.0  4.0  278P/McNaught                                            MPEC 2021-S45
0279P         2023 04 19.5837  2.148339  0.398711    5.8507  346.2331    5.0525  20220610  14.0  4.0  279P/LaSagra                                             MPEC 2022-K19
0280P         2023 08  4.7291  2.639545  0.417320  104.7529  131.3930   11.7737  20220610  12.5  4.0  280P/Larsen                                              MPEC 2022-K19
0281P         2023 02  1.6421  4.034502  0.172425   26.6604   87.1806    4.7188  20220610  11.0  4.0  281P/MOSS                                                MPEC 2021-W31
0282P         2021 10 24.6283  3.441056  0.188314  217.6313    9.2978    5.8117  20220610  13.5  2.0  282P                                                     MPC133426
0283P         2021 09  7.9634  2.132147  0.484603   22.2335  161.1295   14.4552  20220610  16.0  2.0  283P/Spacewatch                                          MPEC 2022-K19
0284P         2021 09 12.5751  2.295654  0.375510  202.4121  144.2608   11.8613  20220610  13.0  4.0  284P/McNaught                                            MPEC 2022-K19
0285P         2023 01 12.3849  1.719266  0.618604  178.4391  185.5079   25.0383  20220610  15.0  4.0  285P/LINEAR                                              MPC 85339
0286P         2022 05 12.6510  2.361004  0.425694   24.8610  283.9547   17.0435  20220610  14.0  4.0  286P/Christensen                                         MPEC 2021-O56
0287P         2023 07  4.9504  3.034730  0.271092  189.0685  139.0422   16.3201  20220610  13.5  4.0  287P/Christensen                                         MPEC 2022-L66
0288P         2022 03  1.8231  2.436922  0.200867  280.2407   83.1267    3.2381  20220610  16.0  2.0  288P                                                     MPC133426
0289P         2019 12 21.0272  0.957198  0.685751    9.8431   68.8831    5.8972  20220610  19.0  4.0  289P/Blanpain                                            MPEC 2022-K19
0290P         2029 07 25.6141  2.315127  0.627523  181.8776  302.6788   20.0614  20220610  10.5  4.0  290P/Jager                                               MPC 95214
0291P         2023 05  4.7539  2.562476  0.435675  173.5848  237.8039    6.2986  20220610  13.0  4.0  291P/NEAT                                                MPEC 2021-N06
0292P         2029 03  3.1347  2.507740  0.589162  319.4902   90.9463   24.2787  20220610  12.5  4.0  292P/Li                                                  MPEC 2022-K19
0293P         2020 12 19.1120  2.118694  0.418261   40.9910   78.3993    9.0580  20220610  14.5  4.0  293P/Spacewatch                                          MPEC 2022-L66
0294P         2019 12  3.3601  1.269400  0.601994  235.5786  312.0281   18.0237  20220610  15.5  4.0  294P/LINEAR                                              MPEC 2020-SI8
0295P         2026 07 23.8071  2.033875  0.616674   72.8724    7.4395   21.0740  20220610  12.0  4.0  295P/LINEAR                                              MPEC 2022-K19
0296P         2020 09 17.6385  1.821150  0.478734  350.0357  263.5750   25.2355  20220610  14.0  4.0  296P/Garradd                                             MPEC 2021-N06
0297P         2021 01 24.3392  2.346386  0.320403  133.0368   97.5229   10.3090  20220610  15.0  4.0  297P/Beshore                                             MPC102956
0298P         2020 09  6.1037  2.203447  0.386337  100.6522   52.8219    7.8708  20220610  15.0  4.0  298P/Christensen                                         MPC114609
0299P         2024 05  1.0210  3.154084  0.281038  323.8191  271.6158   10.4696  20220610  11.5  4.0  299P/Catalina-PANSTARRS                                  MPEC 2022-CN4
0300P         2023 04 11.0895  0.832093  0.691751  222.9323   95.6346    5.6740  20220610  16.0  4.0  300P/Catalina                                            MPEC 2022-ED3
0301P         2028 05 24.6050  2.380798  0.585211  193.6196  351.1745   10.3396  20220610  13.0  4.0  301P/LINEAR-NEAT                                         MPC 89014
0302P         2025 03  7.9868  3.289847  0.230319  208.3869  121.7448    6.0336  20220610  12.5  4.0  302P/Lemmon-PANSTARRS                                    MPEC 2022-K19
0303P         2026 02 18.9108  2.467430  0.510926  356.9438  347.9718    7.0215  20220610  13.5  4.0  303P/NEAT                                                MPC 92278
0304P         2020 08 12.6724  1.257810  0.600788  335.2482   58.9142    2.6071  20220610  16.5  4.0  304P/Ory                                                 MPEC 2022-K19
0305P         2024 11 17.1492  1.421333  0.693799  147.3369  240.1031   11.6617  20220610  18.0  4.0  305P/Skiff                                               MPC101100
0306P         2020 01 23.1173  1.270484  0.593290    0.8705  341.3735    8.3111  20220610  19.0  4.0  306P/LINEAR                                              MPC 92278
0307P         2028 11 29.4693  1.879972  0.675343  222.1362  158.1688    4.4356  20220610  15.0  4.0  307P/LINEAR                                              MPC 92278
0308P         2015 05  9.0593  4.196521  0.364249  333.6178   63.0537    4.8531  20220610  13.0  2.0  308P/Lagerkvist-Carsenty                                 MPEC 2022-C56
0309P         2024 03 29.2204  1.670293  0.618013   49.9369   10.1473   17.0237  20220610  15.0  4.0  309P/LINEAR                                              MPC 94284
0310P         2023 10 24.2841  2.415589  0.422172   31.7761    8.9217   13.1278  20220610  13.5  4.0  310P/Hill                                                MPC 98566
0311P         2024 01  2.7856  1.934970  0.115773  144.5217  279.2136    4.9698  20220610  17.0  4.0  311P/PANSTARRS                                           MPEC 2021-BE3
0312P         2020 09 25.1716  1.984475  0.427863  207.6141  144.6703   19.7675  20220610  16.0  4.0  312P/NEAT                                                MPEC 2021-BE3
